OBJECT_NAME,OBJECT_ID,EPOCH,MEAN_MOTION,ECCENTRICITY,INCLINATION,RA_OF_ASC_NODE,ARG_OF_PERICENTER,MEAN_ANOMALY,EPHEMERIS_TYPE,CLASSIFICATION_TYPE,NORAD_CAT_ID,ELEMENT_SET_NO,REV_AT_EPOCH,BSTAR,MEAN_MOTION_DOT,MEAN_MOTION_DDOT
STARLINK-5809,2023-028AL,2026-05-30T22:19:23.341728,14.98331910,.0002744,69.9995,17.0321,263.3863,96.6984,0,U,55775,999,17885,.36712E-4,.345E-5,0
STARLINK-5814,2023-028AN,2026-05-31T01:19:38.210304,14.98331906,.0002611,69.9995,16.6673,269.5980,90.4880,0,U,55777,999,17887,.21982E-4,.169E-5,0
STARLINK-5816,2023-028AP,2026-05-31T01:13:37.714080,14.98330340,.0002738,69.9996,16.6521,269.2909,90.7937,0,U,55778,999,17887,.18003E-4,.122E-5,0
STARLINK-5817,2023-028AQ,2026-05-30T22:55:05.477664,14.98323948,.0003207,70.0000,356.8351,273.6628,86.4164,0,U,55779,999,17935,.92825E-4,.1015E-4,0
STARLINK-5819,2023-028AR,2026-05-31T01:07:37.005312,14.98328385,.0002943,69.9997,16.6356,271.0404,89.0418,0,U,55780,999,17887,.73202E-4,.78E-5,0
STARLINK-5820,2023-028AS,2026-05-31T01:25:39.257760,14.98327743,.0002744,69.9996,16.7147,270.1598,89.9247,0,U,55781,999,17887,.21239E-4,.16E-5,0
STARLINK-5826,2023-028AT,2026-05-30T22:49:21.363744,14.98334466,.0003102,69.9989,357.2277,271.9788,88.1016,0,U,55782,999,17934,-.24388E-3,-.3002E-4,0
STARLINK-5825,2023-028AU,2026-05-31T00:25:15.492288,14.98329406,.0002776,70.0000,357.0583,265.9669,94.1173,0,U,55783,999,17935,.20446E-4,.151E-5,0
STARLINK-5797,2023-028AV,2026-05-30T22:25:19.511040,14.98321168,.0002397,70.0009,357.1706,265.7567,94.3318,0,U,55784,999,17934,.4203E-3,.4924E-4,0
STARLINK-5818,2023-028AW,2026-05-31T00:19:14.914848,14.98330645,.0001946,69.9998,357.0442,266.8439,93.2497,0,U,55785,999,17935,.15668E-4,.94E-6,0
STARLINK-5823,2023-028AX,2026-05-31T00:00:02.000160,14.98315068,.0002999,70.0007,357.0031,274.3590,81.3048,0,U,55786,999,567,.33198E-2,.39728E-3,0
STARLINK-5811,2023-028AY,2026-05-31T00:13:14.058336,14.98331252,.0002725,69.9993,357.0297,266.6346,93.4502,0,U,55787,999,17935,.34083E-4,.314E-5,0
STARLINK-5804,2023-028AZ,2026-05-31T00:07:13.569024,14.98330631,.0002619,69.9993,357.0151,269.7385,90.3474,0,U,55788,999,17935,.99844E-5,.26E-6,0
STARLINK-5815,2023-028BA,2026-05-30T23:31:10.989120,14.98313269,.0002565,69.9995,356.9265,271.2848,88.8017,0,U,55789,999,17935,-.17587E-3,-.219E-4,0
STARLINK-5813,2023-028BB,2026-05-30T23:37:24.532608,14.98330515,.0002831,69.9996,356.9416,269.2505,90.8330,0,U,55790,999,17935,.37981E-4,.36E-5,0
STARLINK-5807,2023-028BC,2026-05-30T22:19:04.162656,14.98329940,.0002778,69.9992,357.1535,269.2286,90.8555,0,U,55791,999,17934,.16272E-4,.101E-5,0
ONEWEB-0530,2023-029A,2026-05-31T02:53:23.063712,13.20770299,.000238,87.9171,277.8728,99.0075,261.1328,0,U,55796,999,15889,-.77093E-4,-.18E-6,0
ONEWEB-0534,2023-029B,2026-05-30T21:09:08.455104,13.20770387,.0001844,87.9174,277.9207,97.6183,262.5160,0,U,55797,999,15886,-.36439E-3,-.135E-5,0
ONEWEB-0556,2023-029C,2026-05-30T21:18:52.396416,13.20772061,.0002227,87.9172,277.9195,76.9861,283.1521,0,U,55798,999,15886,-.20938E-3,-.72E-6,0
ONEWEB-0562,2023-029D,2026-05-30T20:59:26.511360,13.20771606,.0002693,87.9173,277.9024,90.4523,269.6919,0,U,55799,999,15886,-.10873E-3,-.31E-6,0
ONEWEB-0563,2023-029E,2026-05-30T20:52:11.591904,13.20771777,.0001682,87.9172,277.9345,95.4412,264.6914,0,U,55800,999,15885,-.22123E-4,.4E-7,0
ONEWEB-0564,2023-029F,2026-05-30T20:42:29.541024,13.20773477,.00022788,87.9173,277.9087,96.2259,263.9134,0,U,55801,999,15886,.190715E-6,.13E-6,0
ONEWEB-0638,2023-029G,2026-05-30T23:05:24.901728,13.14501784,.0002146,87.8938,293.1879,84.7152,275.4222,0,U,55802,999,15713,-.77024E-3,-.273E-5,0
ONEWEB-0639,2023-029H,2026-05-30T23:21:19.409184,13.19726375,.0000856,87.9153,308.4071,83.2532,276.8698,0,U,55803,999,15663,-.15872E-3,-.51E-6,0
ONEWEB-0640,2023-029J,2026-05-30T21:29:30.308352,13.14502006,.0001882,87.8938,293.1920,76.6288,283.5052,0,U,55804,999,15714,-.50147E-3,-.173E-5,0
ONEWEB-0641,2023-029K,2026-05-30T23:14:29.043744,13.19726704,.0001633,87.9158,308.3959,96.4610,263.6709,0,U,55805,999,15664,-.84042E-4,-.21E-6,0
ONEWEB-0642,2023-029L,2026-05-30T23:07:39.983808,13.19725723,.0001018,87.9154,308.4101,104.2864,255.8382,0,U,55806,999,15663,-.44042E-3,-.163E-5,0
ONEWEB-0643,2023-029M,2026-05-30T20:46:07.908384,13.14501653,.0001298,87.8941,293.1854,113.7220,246.4046,0,U,55807,999,15711,-.14021E-3,-.39E-6,0
ONEWEB-0644,2023-029N,2026-05-30T23:00:49.152672,13.19725634,.0001274,87.9152,308.4129,107.9896,252.1375,0,U,55808,999,15663,-.5674E-3,-.214E-5,0
ONEWEB-0645,2023-029P,2026-05-30T21:43:29.908992,13.19727599,.0001489,87.9151,308.4204,82.1905,277.9397,0,U,55809,999,15662,.10799E-3,.56E-6,0
