STARLINK-5809           
1 55775U 23028AL  26150.93013127  .00000345  00000+0  36712-4 0  9998
2 55775  69.9995  17.0321 0002744 263.3863  96.6984 14.98331910178850
STARLINK-5814           
1 55777U 23028AN  26151.05530336  .00000169  00000+0  21982-4 0  9997
2 55777  69.9995  16.6673 0002611 269.5980  90.4880 14.98331906178872
STARLINK-5816           
1 55778U 23028AP  26151.05113095  .00000122  00000+0  18003-4 0  9996
2 55778  69.9996  16.6521 0002738 269.2909  90.7937 14.98330340178871
STARLINK-5817           
1 55779U 23028AQ  26150.95492451  .00001015  00000+0  92825-4 0  9997
2 55779  70.0000 356.8351 0003207 273.6628  86.4164 14.98323948179354
STARLINK-5819           
1 55780U 23028AR  26151.04695608  .00000780  00000+0  73202-4 0  9995
2 55780  69.9997  16.6356 0002943 271.0404  89.0418 14.98328385178871
STARLINK-5820           
1 55781U 23028AS  26151.05948215  .00000160  00000+0  21239-4 0  9997
2 55781  69.9996  16.7147 0002744 270.1598  89.9247 14.98327743178879
STARLINK-5826           
1 55782U 23028AT  26150.95094171 -.00003002  00000+0 -24388-3 0  9996
2 55782  69.9989 357.2277 0003102 271.9788  88.1016 14.98334466179346
STARLINK-5825           
1 55783U 23028AU  26151.01754042  .00000151  00000+0  20446-4 0  9997
2 55783  70.0000 357.0583 0002776 265.9669  94.1173 14.98329406179359
STARLINK-5797           
1 55784U 23028AV  26150.93425360  .00004924  00000+0  42030-3 0  9990
2 55784  70.0009 357.1706 0002397 265.7567  94.3318 14.98321168179340
STARLINK-5818           
1 55785U 23028AW  26151.01336707  .00000094  00000+0  15668-4 0  9999
2 55785  69.9998 357.0442 0001946 266.8439  93.2497 14.98330645179357
STARLINK-5823           
1 55786U 23028AX  26151.00002315  .00039728  00000+0  33198-2 0  9996
2 55786  70.0007 357.0031 0002999 274.3590  81.3048 14.98315068  5672
STARLINK-5811           
1 55787U 23028AY  26151.00919049  .00000314  00000+0  34083-4 0  9993
2 55787  69.9993 357.0297 0002725 266.6346  93.4502 14.98331252179357
STARLINK-5804           
1 55788U 23028AZ  26151.00501816  .00000026  00000+0  99844-5 0  9990
2 55788  69.9993 357.0151 0002619 269.7385  90.3474 14.98330631179350
STARLINK-5815           
1 55789U 23028BA  26150.97998830 -.00002190  00000+0 -17587-3 0  9990
2 55789  69.9995 356.9265 0002565 271.2848  88.8017 14.98313269179352
STARLINK-5813           
1 55790U 23028BB  26150.98431172  .00000360  00000+0  37981-4 0  9990
2 55790  69.9996 356.9416 0002831 269.2505  90.8330 14.98330515179350
STARLINK-5807           
1 55791U 23028BC  26150.92990929  .00000101  00000+0  16272-4 0  9998
2 55791  69.9992 357.1535 0002778 269.2286  90.8555 14.98329940179346
ONEWEB-0530             
1 55796U 23029A   26151.12040583 -.00000018  00000+0 -77093-4 0  9996
2 55796  87.9171 277.8728 0002380  99.0075 261.1328 13.20770299158895
ONEWEB-0534             
1 55797U 23029B   26150.88134786 -.00000135  00000+0 -36439-3 0  9996
2 55797  87.9174 277.9207 0001844  97.6183 262.5160 13.20770387158864
ONEWEB-0556             
1 55798U 23029C   26150.88810644 -.00000072  00000+0 -20938-3 0  9998
2 55798  87.9172 277.9195 0002227  76.9861 283.1521 13.20772061158869
ONEWEB-0562             
1 55799U 23029D   26150.87461240 -.00000031  00000+0 -10873-3 0  9994
2 55799  87.9173 277.9024 0002693  90.4523 269.6919 13.20771606158869
ONEWEB-0563             
1 55800U 23029E   26150.86957861  .00000004  00000+0 -22123-4 0  9996
2 55800  87.9172 277.9345 0001682  95.4412 264.6914 13.20771777158854
ONEWEB-0564             
1 55801U 23029F   26150.86284191  .00000013  00000+0  19072-6 0  9996
2 55801  87.9173 277.9087 0002278  96.2259 263.9134 13.20773477158865
ONEWEB-0638             
1 55802U 23029G   26150.96209377 -.00000273  00000+0 -77024-3 0  9999
2 55802  87.8938 293.1879 0002146  84.7152 275.4222 13.14501784157139
ONEWEB-0639             
1 55803U 23029H   26150.97314131 -.00000051  00000+0 -15872-3 0  9993
2 55803  87.9153 308.4071 0000856  83.2532 276.8698 13.19726375156632
ONEWEB-0640             
1 55804U 23029J   26150.89548968 -.00000173  00000+0 -50147-3 0  9991
2 55804  87.8938 293.1920 0001882  76.6288 283.5052 13.14502006157144
ONEWEB-0641             
1 55805U 23029K   26150.96839171 -.00000021  00000+0 -84042-4 0  9993
2 55805  87.9158 308.3959 0001633  96.4610 263.6709 13.19726704156644
ONEWEB-0642             
1 55806U 23029L   26150.96365722 -.00000163  00000+0 -44042-3 0  9992
2 55806  87.9154 308.4101 0001018 104.2864 255.8382 13.19725723156636
ONEWEB-0643             
1 55807U 23029M   26150.86536931 -.00000039  00000+0 -14021-3 0  9990
2 55807  87.8941 293.1854 0001298 113.7220 246.4046 13.14501653157112
ONEWEB-0644             
1 55808U 23029N   26150.95890223 -.00000214  00000+0 -56740-3 0  9997
2 55808  87.9152 308.4129 0001274 107.9896 252.1375 13.19725634156638
ONEWEB-0645             
1 55809U 23029P   26150.90520728  .00000056  00000+0  10799-3 0  9999
2 55809  87.9151 308.4204 0001489  82.1905 277.9397 13.19727599156625
